P/2011 S1 (Gibbs),e,2.6861,218.8496,192.4422,8.583506,0.0391929,0.20110189,108.5785,03/14.0/2022,2000,g  8.0,4.0
# From MPC 79022
P/2011 UA134 (Spacewatch-PANSTARRS),e,10.4405,40.4002,32.4064,5.608509,0.0742050,0.62955216,280.4993,03/14.0/2022,2000,g 17.5,4.0
# From MPC 77406
P/2011 V1 (Boattini),e,7.3750,46.8024,269.3453,3.856468,0.1301426,0.55037189,163.8044,03/14.0/2022,2000,g 15.5,4.0
# From MPC 82718
P/2011 W1 (PANSTARRS),e,3.7185,161.7864,282.7535,4.663580,0.0978645,0.28766953,3.3536,03/14.0/2022,2000,g 11.5,4.0
# From MPC 79342
P/2011 Y2 (Boattini),e,6.3741,309.3495,131.9214,6.239063,0.0632448,0.70986752,231.6071,03/14.0/2022,2000,g 15.0,4.0
# From MPC 94669
P/2012 B1 (PANSTARRS),e,7.6108,36.2155,162.4691,6.530842,0.0590541,0.40902119,186.8984,03/14.0/2022,2000,g  9.0,4.0
# From MPC 78590
P/2012 C3 (PANSTARRS),e,9.0920,135.3677,344.9542,9.748681,0.0323806,0.63011148,359.9758,10/06.0/2011,2000,g 13.0,4.0
# From MPC 84931
P/2012 F2 (PANSTARRS),e,14.7075,227.0081,33.3183,6.333109,0.0618413,0.54165675,201.5403,03/14.0/2022,2000,g 12.0,4.0
# From MPEC 2022-ED3
P/2012 G1 (PANSTARRS),e,12.1755,283.2800,266.0717,4.164508,0.1159735,0.32972164,61.4363,03/14.0/2022,2000,g 15.0,4.0
# From MPC 80898
P/2012 K3 (Gibbs),e,13.1930,125.8141,172.2255,3.627102,0.1426804,0.42301703,134.0661,03/14.0/2022,2000,g 15.0,4.0
# From MPC 88326
P/2012 NJ (La Sagra),e,84.6361,315.5596,338.3699,8.464004,0.0400258,0.84696616,142.4730,03/14.0/2022,2000,g 14.5,4.0
# From MPC 81470
P/2012 O1 (McNaught),e,7.4291,91.9576,238.2827,3.541249,0.1479004,0.59450447,163.7597,03/14.0/2022,2000,g 17.5,4.0
# From MPC 80899
P/2012 O2 (McNaught),e,24.4796,120.6837,183.4612,3.625160,0.1427951,0.53242127,148.9253,03/14.0/2022,2000,g 17.0,4.0
# From MPC 82720
P/2012 O3 (McNaught),e,16.6160,336.4137,344.7543,4.572401,0.1008063,0.64702424,352.2608,03/14.0/2022,2000,g 16.5,4.0
# From MPC 82320
P/2012 T2 (PANSTARRS),e,12.5630,73.7165,310.5690,5.731833,0.0718230,0.16187132,233.0422,03/14.0/2022,2000,g 10.0,4.0
# From MPC 80900
P/2012 T3 (PANSTARRS),e,9.5634,114.3914,195.5091,6.151198,0.0646048,0.61707263,232.5759,03/14.0/2022,2000,g 15.0,4.0
# From MPC 82720
P/2012 U2 (PANSTARRS),e,10.7579,185.3147,228.2452,7.135694,0.0517071,0.49919597,176.2822,03/14.0/2022,2000,g 12.5,4.0
# From MPC 84024
P/2012 US27 (Siding Spring),e,39.3583,49.1924,0.8066,5.165978,0.0839412,0.64797676,280.0482,03/14.0/2022,2000,g 13.5,4.0
# From MPC 82721
P/2012 WA34 (Lemmon-PANSTARRS),e,6.0779,93.6796,356.0833,4.698524,0.0967747,0.34544778,313.5779,03/14.0/2022,2000,g 13.5,4.0
# From MPC 82721
P/2013 AL76 (Catalina),e,144.8557,145.9948,27.0616,6.497438,0.0595101,0.68630415,201.5065,03/14.0/2022,2000,g 16.0,4.0
# From MPC 91612
P/2013 G1 (Kowalski),e,5.4611,221.3474,51.5069,6.893587,0.0544548,0.51205114,164.1419,03/14.0/2022,2000,g 11.0,4.0
# From MPC 84025
P/2013 G4 (PANSTARRS),e,5.9163,339.6383,214.6515,4.440347,0.1053365,0.40944157,349.7415,03/14.0/2022,2000,g 15.0,4.0
# From MPC 91613
P/2013 J2 (McNaught),e,15.5222,289.3884,37.8091,6.222820,0.0634926,0.65760636,197.9540,03/14.0/2022,2000,g 13.0,4.0
# From MPC 86229
P/2013 N3 (PANSTARRS),e,2.1740,17.4637,323.9387,7.392919,0.0490321,0.59328265,144.4729,03/14.0/2022,2000,g 13.0,4.0
# From MPC 85834
P/2013 N5 (PANSTARRS),e,23.4539,187.1561,176.9178,6.797598,0.0556123,0.73241319,176.4846,03/14.0/2022,2000,g 17.0,4.0
# From MPC 85834
P/2013 P1 (PANSTARRS),e,18.7252,160.5902,138.2166,8.576909,0.0392381,0.60535106,129.4620,03/14.0/2022,2000,g 12.0,4.0
# From MPC 94671
P/2013 R3 (Catalina-PANSTARRS),e,0.8650,341.9934,11.2217,3.033028,0.1865905,0.27545622,222.4682,03/14.0/2022,2000,g 14.0,4.0
# From unp
P/2013 R3-A (Catalina-PANSTARRS),e,0.8644,341.9602,11.2607,3.032886,0.1866036,0.27542583,222.5066,03/14.0/2022,2000,g  9.0,4.0
# From MPEC 2015-M77
P/2013 R3-B (Catalina-PANSTARRS),e,0.8657,342.0161,11.1956,3.033105,0.1865833,0.27547116,222.4476,03/14.0/2022,2000,g  9.0,4.0
# From MPC 85835
P/2013 T1 (PANSTARRS),e,24.2986,10.0805,346.1319,5.858568,0.0695051,0.62419072,218.4371,03/14.0/2022,2000,g 16.5,4.0
# From MPC 86643
P/2013 T2 (Schwartz),e,9.4575,0.8011,345.5505,3.491117,0.1510976,0.50121621,126.0456,03/14.0/2022,2000,g 16.0,4.0
# From MPC 91613
P/2013 W1 (PANSTARRS),e,4.6957,117.8446,1.2565,3.488695,0.1512549,0.59272536,83.1551,03/14.0/2022,2000,g 17.5,4.0
# From MPC101095
P/2013 YG46 (Spacewatch),e,7.8568,48.8381,242.5731,3.275047,0.1662945,0.45478784,310.4060,03/14.0/2022,2000,g 10.0,4.0
# From MPC 89728
P/2014 A2 (Hill),e,24.5371,106.6299,356.1662,5.927462,0.0682969,0.64536274,210.0885,03/14.0/2022,2000,g 15.0,4.0
# From MPC 92981
P/2014 A3 (PANSTARRS),e,13.7083,229.9862,213.9030,4.613859,0.0994506,0.24718489,319.9183,03/14.0/2022,2000,g 12.0,4.0
# From MPEC 2022-ED3
C/2014 B1 (Schwartz),e,28.4114,161.4224,345.6682,4339,0.0000034,0.99780010,0.0000,09/06.7660/2017,2000,g  4.0,4.0
# From MPC102095
P/2014 C1 (TOTAS),e,2.6918,167.7919,23.8940,3.035555,0.1863575,0.44964662,198.4008,03/14.0/2022,2000,g 15.5,4.0
# From MPC 94280
C/2014 F3 (Sheppard-Trujillo),e,6.5753,326.6635,3.9408,14.95157,0.0170480,0.61927154,5.0464,03/14.0/2022,2000,g  6.0,4.0
# From MPC 98560
P/2014 L2 (NEOWISE),e,5.1997,149.3472,182.6904,6.304300,0.0622657,0.64819544,173.9023,03/14.0/2022,2000,g 12.0,4.0
# From MPC 90769
P/2014 L3 (Hill),e,6.2733,115.4816,178.6872,8.174262,0.0421727,0.77330380,118.6141,03/14.0/2022,2000,g 16.0,4.0
# From MPC 91614
P/2014 M4 (PANSTARRS),e,3.3395,263.2195,147.9863,5.870878,0.0692866,0.59498258,182.5047,03/14.0/2022,2000,g 15.0,4.0
# From MPC103844
P/2014 MG4 (Spacewatch-PANSTARRS),e,9.3695,311.7341,299.0777,5.012724,0.0878200,0.25919273,280.2204,03/14.0/2022,2000,g  9.5,4.0
# From MPC 98560
P/2014 O3 (PANSTARRS),e,7.8009,87.6444,204.7257,7.571279,0.0473097,0.38530466,136.4791,03/14.0/2022,2000,g 10.5,4.0
# From MPEC 2022-C56
C/2014 OG392 (PANSTARRS),e,9.0328,145.7950,254.1447,12.24129,0.0230125,0.18558408,2.3692,03/14.0/2022,2000,g  6.0,4.0
# From MPC 91615
P/2014 R5 (Lemmon-PANSTARRS),e,1.0883,126.5599,213.7340,4.057568,0.1205883,0.41395877,340.9536,03/14.0/2022,2000,g 15.0,4.0
# From MPC104790
C/2014 S2 (PANSTARRS),e,64.5696,8.2132,87.1998,169.2399,0.0004477,0.98774909,0.0000,12/09.9297/2015,2000,g 10.0,4.0
# From MPC 91616
P/2014 U4 (PANSTARRS),e,6.4291,11.8866,347.7837,3.507286,0.1500539,0.46493094,59.0342,03/14.0/2022,2000,g 18.0,4.0
# From MPEC 2022-CN4
C/2014 UN271 (Bernardinelli-Bernstein),e,95.4346,189.9076,326.3221,22774,0.0000003,0.99951968,0.0000,01/25.0660/2031,2000,g  2.5,3.2
# From MPC 95211
P/2014 V1 (PANSTARRS),e,22.5269,166.2002,177.6184,5.480072,0.0768289,0.53449364,200.0740,03/14.0/2022,2000,g 14.0,4.0
# From MPC 93586
P/2014 W1 (PANSTARRS),e,8.8371,246.2420,152.1738,4.463987,0.1045008,0.38902134,292.5396,03/14.0/2022,2000,g 15.5,4.0
# From MPC105542
P/2014 W4 (PANSTARRS),e,15.2799,33.3753,67.6772,6.592742,0.0582244,0.35263166,131.9568,03/14.0/2022,2000,g 11.0,4.0
# From MPC 94281
P/2014 X1 (Elenin),e,26.0290,61.5365,33.9046,6.206917,0.0637368,0.70902268,167.6079,03/14.0/2022,2000,g 15.0,4.0
# From MPC 92275
P/2015 A3 (PANSTARRS),e,172.5357,277.2497,249.3582,7.812035,0.0451396,0.85069199,116.5482,03/14.0/2022,2000,g 20.0,4.0
# From MPC 99270
P/2015 B1 (PANSTARRS),e,18.0434,352.9548,188.9023,9.495153,0.0336861,0.36707470,80.0023,03/14.0/2022,2000,g  8.5,4.0
# From MPC109141
P/2015 B4 (Lemmon-PANSTARRS),e,1.7613,266.0373,227.3562,8.523155,0.0396099,0.56016235,102.8473,03/14.0/2022,2000,g 11.0,4.0
# From MPC101096
P/2015 C1 (TOTAS-Gibbs),e,13.9057,348.8016,178.1930,6.578671,0.0584113,0.56046044,146.9455,03/14.0/2022,2000,g 12.5,4.0
# From MPC109141
P/2015 D5 (Kowalski),e,20.5185,74.0639,39.7483,8.960474,0.0367458,0.48926873,106.7454,03/14.0/2022,2000,g  9.0,4.0
# From MPC 96866
P/2015 D6 (Lemmon-PANSTARRS),e,20.2023,45.9179,125.0884,7.139612,0.0516645,0.36133246,126.5889,03/14.0/2022,2000,g 10.5,4.0
# From MPEC 2021-P47
C/2015 ER61 (PANSTARRS),e,6.3228,235.0527,68.4964,533.2407,0.0000800,0.99803557,0.0000,05/10.3827/2017,2000,g 11.0,2.0
# From MPEC 2018-BF5
C/2015 E61-B (PANSTARRS),e,6.3244,235.0878,68.5859,1760,0.0000134,0.99940374,0.0000,05/10.3609/2017,2000,g 13.5,2.0
# From MPEC 2021-P47
P/2015 HG16 (PANSTARRS),e,18.7831,58.0212,47.7219,4.757954,0.0949672,0.35240697,269.4649,03/14.0/2022,2000,g 12.5,4.0
# From MPC 95213
P/2015 K5 (PANSTARRS),e,39.9448,134.1875,106.3531,6.724441,0.0565223,0.55250889,139.9468,03/14.0/2022,2000,g 13.5,4.0
# From MPC107684
P/2015 M2 (PANSTARRS),e,3.9709,86.5861,225.7966,7.237362,0.0506213,0.18049946,120.1834,03/14.0/2022,2000,g  8.5,4.0
# From MPEC 2021-P47
C/2015 O1 (PANSTARRS),h,02/20.0453/2018,127.2054,299.8438,89.5927,1.001527,3.725158,2000,6.5,4.0
# From MPC 99819
P/2015 P4 (PANSTARRS),e,8.7173,104.7216,280.6060,6.047509,0.0662734,0.58538647,148.6584,03/14.0/2022,2000,g 14.0,4.0
# From MPC102952
P/2015 PD229 (Cameron-ISON),e,2.0260,342.6396,352.5912,7.188045,0.0511432,0.32800727,122.7741,03/14.0/2022,2000,g 11.5,2.0
# From MPC 96867
P/2015 Q2 (Pimentel),e,146.5292,228.4868,244.5865,7.351956,0.0494424,0.75056035,117.7134,03/14.0/2022,2000,g 15.5,4.0
# From MPC 98562
P/2015 R1 (PANSTARRS),e,22.6899,48.3639,300.5189,5.880196,0.0691220,0.63437582,169.2868,03/14.0/2022,2000,g 14.0,4.0
# From MPC 95734
P/2015 R2 (PANSTARRS),e,15.4850,168.5969,149.8189,4.486778,0.1037056,0.45290520,255.5557,03/14.0/2022,2000,g 14.5,4.0
# From MPC117068
C/2015 T2 (PANSTARRS),e,124.5637,50.9873,30.6695,1754,0.0000134,0.99604298,0.0000,05/18.2203/2017,2000,g  8.0,4.0
# From MPC 96280
P/2015 T3 (PANSTARRS),e,13.0937,120.5019,178.6330,4.326181,0.1095335,0.50818108,359.9227,12/21.0/2014,2000,g 14.0,4.0
# From MPC102953
P/2015 TO19 (Lemmon-PANSTARRS),e,6.4998,321.6435,89.1276,4.553770,0.1014256,0.35885695,223.0100,03/14.0/2022,2000,g 14.0,4.0
# From MPC110080
P/2015 TP200 (LINEAR),e,8.7802,7.0166,82.4905,7.268386,0.0502976,0.53557813,98.7538,03/14.0/2022,2000,g 11.0,4.0
# From MPC115881
C/2015 V1 (PANSTARRS),e,139.2279,197.1536,179.6504,2093,0.0000103,0.99795690,0.0000,12/16.4763/2017,2000,g  6.5,4.0
